{"type": "FeatureCollection", "features": [ {"type": "Feature", "properties": {"norad_id": 66911, "name": "1998-067XX", "group": "stations", "lat": -39.132006371737, "lon": -52.07846085052176, "alt_km": 408.78782742574276, "timestamp": "2025-12-23T16:57:11.095442+00:00", "meta": {"OBJECT_NAME": "1998-067XX", "OBJECT_ID": "1998-067XX", "EPOCH": "2025-12-23T06:41:16.956672", "MEAN_MOTION": 15.53428258, "ECCENTRICITY": 0.00036741, "INCLINATION": 51.6305, "RA_OF_ASC_NODE": 89.9162, "ARG_OF_PERICENTER": 271.3133, "MEAN_ANOMALY": 88.7437, "EPHEMERIS_TYPE": 0, "CLASSIFICATION_TYPE": "U", "NORAD_CAT_ID": 66911, "ELEMENT_SET_NO": 999, "REV_AT_EPOCH": 324, "BSTAR": 0.0011217181, "MEAN_MOTION_DOT": 0.00072588, "MEAN_MOTION_DDOT": 0}, "tle": {"line1": "1 66911U 98067XX  25357.27866848  .00072588  00000+0  11217-2 0  9997", "line2": "2 66911  51.6305  89.9162 0003674 271.3133  88.7437 15.53428258  3249"}}, "geometry": {"type": "Point", "coordinates": [-52.07846085052176, -39.132006371737]}}, {"type": "Feature", "properties": {"norad_id": 66912, "name": "1998-067XY", "group": "stations", "lat": 9.112350994688079, "lon": -99.3802546822325, "alt_km": 410.9209551410322, "timestamp": "2025-12-23T16:57:11.095452+00:00", "meta": {"OBJECT_NAME": "1998-067XY", "OBJECT_ID": "1998-067XY", "EPOCH": "2025-12-22T13:57:42.061248", "MEAN_MOTION": 15.52056622, "ECCENTRICITY": 0.00039127, "INCLINATION": 51.6324, "RA_OF_ASC_NODE": 93.5129, "ARG_OF_PERICENTER": 278.0711, "MEAN_ANOMALY": 81.9835, "EPHEMERIS_TYPE": 0, "CLASSIFICATION_TYPE": "U", "NORAD_CAT_ID": 66912, "ELEMENT_SET_NO": 999, "REV_AT_EPOCH": 313, "BSTAR": 0.00086867978, "MEAN_MOTION_DOT": 0.0005325, "MEAN_MOTION_DDOT": 0}, "tle": {"line1": "1 66912U 98067XY  25356.58173682  .00053250  00000+0  86868-3 0  9998", "line2": "2 66912  51.6324  93.5129 0003912 278.0711  81.9835 15.52056622  3132"}}, "geometry": {"type": "Point", "coordinates": [-99.3802546822325, 9.112350994688079]}}]}